{
  "type": "FeatureCollection",
  "features": [
    {
      "type": "Feature",
      "properties": {
        "norad_id": 33724,
        "name": "FENGYUN 1C DEB",
        "group": "fengyun-1c-debris",
        "lat": 64.95360766551504,
        "lon": -11.902482716992207,
        "alt_km": 818.58512286532,
        "timestamp": "2025-12-22T23:36:21.000736+00:00",
        "meta_object_name": "FENGYUN 1C DEB",
        "meta_object_id": "1999-025DHM",
        "meta_epoch": "2025-12-22T06:40:37.155648",
        "meta_mean_motion": 14.19663244,
        "meta_eccentricity": 0.00279005,
        "meta_inclination": 98.6032,
        "meta_ra_of_asc_node": 6.3154,
        "meta_arg_of_pericenter": 154.2406,
        "meta_mean_anomaly": 269.5567,
        "meta_ephemeris_type": 0,
        "meta_classification_type": "U",
        "meta_norad_cat_id": 33724,
        "meta_element_set_no": 999,
        "meta_rev_at_epoch": 94097,
        "meta_bstar": 0.00040045162,
        "meta_mean_motion_dot": 8.07e-06,
        "meta_mean_motion_ddot": 0,
        "tle_line1": "1 33724U 99025DHM 25356.27820782  .00000807  00000+0  40045-3 0  9991",
        "tle_line2": "2 33724  98.6032   6.3154 0027900 154.2406 269.5567 14.19663244940977"
      },
      "geometry": {
        "type": "Point",
        "coordinates": [
          -11.902482716992207,
          64.95360766551504
        ]
      }
    },
    {
      "type": "Feature",
      "properties": {
        "norad_id": 33726,
        "name": "FENGYUN 1C DEB",
        "group": "fengyun-1c-debris",
        "lat": -38.54844079619072,
        "lon": -66.09283393273883,
        "alt_km": 960.6580379806419,
        "timestamp": "2025-12-22T23:36:21.000746+00:00",
        "meta_object_name": "FENGYUN 1C DEB",
        "meta_object_id": "1999-025DHP",
        "meta_epoch": "2025-12-22T07:25:21.024768",
        "meta_mean_motion": 14.14317357,
        "meta_eccentricity": 0.01922665,
        "meta_inclination": 98.6392,
        "meta_ra_of_asc_node": 120.2126,
        "meta_arg_of_pericenter": 3.7011,
        "meta_mean_anomaly": 25.3001,
        "meta_ephemeris_type": 0,
        "meta_classification_type": "U",
        "meta_norad_cat_id": 33726,
        "meta_element_set_no": 999,
        "meta_rev_at_epoch": 92067,
        "meta_bstar": 0.00027067796,
        "meta_mean_motion_dot": 5.74e-06,
        "meta_mean_motion_ddot": 0,
        "tle_line1": "1 33726U 99025DHP 25356.30927112  .00000574  00000+0  27068-3 0  9993",
        "tle_line2": "2 33726  98.6392 120.2126 0192266   3.7011  25.3001 14.14317357920673"
      },
      "geometry": {
        "type": "Point",
        "coordinates": [
          -66.09283393273883,
          -38.54844079619072
        ]
      }
    },
    {
      "type": "Feature",
      "properties": {
        "norad_id": 33728,
        "name": "FENGYUN 1C DEB",
        "group": "fengyun-1c-debris",
        "lat": 9.252367421945895,
        "lon": -124.22218401385304,
        "alt_km": 490.1793684775421,
        "timestamp": "2025-12-22T23:36:21.000756+00:00",
        "meta_object_name": "FENGYUN 1C DEB",
        "meta_object_id": "1999-025DHR",
        "meta_epoch": "2025-12-19T03:08:31.669440",
        "meta_mean_motion": 14.92712258,
        "meta_eccentricity": 0.01477777,
        "meta_inclination": 98.9792,
        "meta_ra_of_asc_node": 49.9098,
        "meta_arg_of_pericenter": 194.4676,
        "meta_mean_anomaly": 165.2288,
        "meta_ephemeris_type": 0,
        "meta_classification_type": "U",
        "meta_norad_cat_id": 33728,
        "meta_element_set_no": 999,
        "meta_rev_at_epoch": 98395,
        "meta_bstar": 0.00039692023,
        "meta_mean_motion_dot": 4.984e-05,
        "meta_mean_motion_ddot": 0,
        "tle_line1": "1 33728U 99025DHR 25353.13092210  .00004984  00000+0  39692-3 0  9990",
        "tle_line2": "2 33728  98.9792  49.9098 0147777 194.4676 165.2288 14.92712258983955"
      },
      "geometry": {
        "type": "Point",
        "coordinates": [
          -124.22218401385304,
          9.252367421945895
        ]
      }
    },
    {
      "type": "Feature",
      "properties": {
        "norad_id": 33730,
        "name": "FENGYUN 1C DEB",
        "group": "fengyun-1c-debris",
        "lat": 80.88016730446772,
        "lon": -27.671737614875084,
        "alt_km": 683.2282824009444,
        "timestamp": "2025-12-22T23:36:21.000766+00:00",
        "meta_object_name": "FENGYUN 1C DEB",
        "meta_object_id": "1999-025DHT",
        "meta_epoch": "2025-12-17T10:18:00.572256",
        "meta_mean_motion": 14.63540792,
        "meta_eccentricity": 0.00393712,
        "meta_inclination": 99.0546,
        "meta_ra_of_asc_node": 49.6389,
        "meta_arg_of_pericenter": 356.5197,
        "meta_mean_anomaly": 3.5723,
        "meta_ephemeris_type": 0,
        "meta_classification_type": "U",
        "meta_norad_cat_id": 33730,
        "meta_element_set_no": 999,
        "meta_rev_at_epoch": 95748,
        "meta_bstar": 0.0011805307,
        "meta_mean_motion_dot": 6.139e-05,
        "meta_mean_motion_ddot": 0,
        "tle_line1": "1 33730U 99025DHT 25351.42917329  .00006139  00000+0  11805-2 0  9999",
        "tle_line2": "2 33730  99.0546  49.6389 0039371 356.5197   3.5723 14.63540792957483"
      },
      "geometry": {
        "type": "Point",
        "coordinates": [
          -27.671737614875084,
          80.88016730446772
        ]
      }
    },
    {
      "type": "Feature",
      "properties": {
        "norad_id": 33731,
        "name": "FENGYUN 1C DEB",
        "group": "fengyun-1c-debris",
        "lat": -35.488707199006534,
        "lon": 26.269613564465825,
        "alt_km": 874.4464373366836,
        "timestamp": "2025-12-22T23:36:21.000786+00:00",
        "meta_object_name": "FENGYUN 1C DEB",
        "meta_object_id": "1999-025DHU",
        "meta_epoch": "2025-12-14T07:32:51.114336",
        "meta_mean_motion": 13.95346461,
        "meta_eccentricity": 0.01291818,
        "meta_inclination": 99.4471,
        "meta_ra_of_asc_node": 10.5718,
        "meta_arg_of_pericenter": 51.9301,
        "meta_mean_anomaly": 309.3431,
        "meta_ephemeris_type": 0,
        "meta_classification_type": "U",
        "meta_norad_cat_id": 33731,
        "meta_element_set_no": 999,
        "meta_rev_at_epoch": 90471,
        "meta_bstar": 0.0013457717,
        "meta_mean_motion_dot": 1.908e-05,
        "meta_mean_motion_ddot": 0,
        "tle_line1": "1 33731U 99025DHU 25348.31448049  .00001908  00000+0  13458-2 0  9997",
        "tle_line2": "2 33731  99.4471  10.5718 0129181  51.9301 309.3431 13.95346461904712"
      },
      "geometry": {
        "type": "Point",
        "coordinates": [
          26.269613564465825,
          -35.488707199006534
        ]
      }
    },
    {
      "type": "Feature",
      "properties": {
        "norad_id": 33733,
        "name": "FENGYUN 1C DEB",
        "group": "fengyun-1c-debris",
        "lat": -0.20821666562385147,
        "lon": -97.23869358819111,
        "alt_km": 745.8015957937841,
        "timestamp": "2025-12-22T23:36:21.000799+00:00",
        "meta_object_name": "FENGYUN 1C DEB",
        "meta_object_id": "1999-025DHW",
        "meta_epoch": "2025-12-14T05:17:42.025056",
        "meta_mean_motion": 14.31052291,
        "meta_eccentricity": 0.0080503,
        "meta_inclination": 99.1007,
        "meta_ra_of_asc_node": 73.621,
        "meta_arg_of_pericenter": 166.27,
        "meta_mean_anomaly": 251.3144,
        "meta_ephemeris_type": 0,
        "meta_classification_type": "U",
        "meta_norad_cat_id": 33733,
        "meta_element_set_no": 999,
        "meta_rev_at_epoch": 90469,
        "meta_bstar": 0.0032633,
        "meta_mean_motion_dot": 8.868e-05,
        "meta_mean_motion_ddot": 0,
        "tle_line1": "1 33733U 99025DHW 25348.22062529  .00008868  00000+0  32633-2 0  9992",
        "tle_line2": "2 33733  99.1007  73.6210 0080503 166.2700 251.3144 14.31052291904690"
      },
      "geometry": {
        "type": "Point",
        "coordinates": [
          -97.23869358819111,
          -0.20821666562385147
        ]
      }
    },
    {
      "type": "Feature",
      "properties": {
        "norad_id": 33737,
        "name": "FENGYUN 1C DEB",
        "group": "fengyun-1c-debris",
        "lat": 58.07562457368535,
        "lon": 176.43058218212158,
        "alt_km": 967.6681316416543,
        "timestamp": "2025-12-22T23:36:21.000809+00:00",
        "meta_object_name": "FENGYUN 1C DEB",
        "meta_object_id": "1999-025DJA",
        "meta_epoch": "2025-12-22T11:29:25.544832",
        "meta_mean_motion": 14.03037461,
        "meta_eccentricity": 0.01283741,
        "meta_inclination": 98.3386,
        "meta_ra_of_asc_node": 189.5832,
        "meta_arg_of_pericenter": 255.4824,
        "meta_mean_anomaly": 134.9356,
        "meta_ephemeris_type": 0,
        "meta_classification_type": "U",
        "meta_norad_cat_id": 33737,
        "meta_element_set_no": 999,
        "meta_rev_at_epoch": 88877,
        "meta_bstar": 0.0012687361,
        "meta_mean_motion_dot": 2.08e-05,
        "meta_mean_motion_ddot": 0,
        "tle_line1": "1 33737U 99025DJA 25356.47876788  .00002080  00000+0  12687-2 0  9999",
        "tle_line2": "2 33737  98.3386 189.5832 0128374 255.4824 134.9356 14.03037461888771"
      },
      "geometry": {
        "type": "Point",
        "coordinates": [
          176.43058218212158,
          58.07562457368535
        ]
      }
    }
  ]
}